{
  "norad_id": 26407,
  "name": "NAVSTAR 48 (USA 151)",
  "history": [
    {
      "epoch": "2026-03-28T12:46:25.008096Z",
      "apogee_km": 20506.34864364564,
      "perigee_km": 19857.098692780517,
      "latitude_deg": 7.027328280539388,
      "longitude_deg": -154.2374374715082,
      "height_km": 20046.552831317586,
      "semi_major_axis_km": 26559.860668213078,
      "eccentricity": 0.01222239,
      "inclination_deg": 54.8698,
      "raan_deg": 218.3638,
      "arg_perigee_deg": 302.5125,
      "mean_anomaly_deg": 64.7596,
      "mean_motion_rev_day": 2.00569122
    }
  ]
}